      2.10          N: GNSS NAV DATA                        RINEX VERSION / TYPE
fic2rin                                 05/02/2024 00:59:03 PGM / RUN BY / DATE
                                                            END OF HEADER
3  24  5  1  1 59 44.0  .339715275913D-03  .202362571144D-10  .000000000000D+00
     .600000000000D+02 -.711250000000D+02  .421731852539D-08 -.177081277129D+01
    -.358931720257D-05  .539278821088D-02  .409781932831D-05  .515373745346D+04
     .266384000000D+06  .521540641785D-07 -.271076425355D+01  .316649675369D-07
     .984206989497D+00  .312812500000D+03  .107479172253D+01 -.800211903466D-08
     .585738684082D-10  .100000000000D+01  .231200000000D+04  .000000000000D+00
     .240000000000D+01  .000000000000D+00  .186264514923D-08  .600000000000D+02
     .259200000000D+06  .400000000000D+01
8  24  5  1  1 59 44.0  .153281260282D-03  .216004991671D-10  .000000000000D+00
     .170000000000D+02  .648437500000D+02  .454090343257D-08  .149909698256D+01
     .339187681675D-05  .945975165814D-02  .803545117378D-05  .515362524986D+04
     .266384000000D+06 -.298023223877D-07  .144137716353D+01  .100582838058D-06
     .953379324967D+00  .221375000000D+03  .357291335190D+00 -.808105089392D-08
    -.294655130712D-09  .100000000000D+01  .231200000000D+04  .000000000000D+00
     .240000000000D+01  .000000000000D+00  .465661287308D-08  .170000000000D+02
     .259200000000D+06  .400000000000D+01
31 24  5  1 11 59 44.0 -.227937009186D-03  .000000000000D+00  .000000000000D+00
     .110000000000D+02  .359375000000D+01  .484698761078D-08  .303569668639D+01
     .987201929092D-07  .104827018222D-01  .912696123123D-05  .515371184540D+04
     .302384000000D+06 -.931322574615D-07 -.597620677346D+00 -.121071934700D-06
     .954363096414D+00  .200937500000D+03  .672065905648D+00 -.785425573271D-08
     .337871216549D-09  .100000000000D+01  .231200000000D+04  .000000000000D+00
     .240000000000D+01  .000000000000D+00 -.130385160446D-07  .110000000000D+02
     .295200000000D+06  .400000000000D+01
2  24  5  1 12  0  0.0 -.443908385932D-03  .659383658785D-11  .000000000000D+00
     .700000000000D+01  .690000000000D+02  .433375194674D-08  .725549064179D+00
     .325962901115D-05  .159932452952D-01  .643543899059D-05  .515370461655D+04
     .302400000000D+06 -.484287738800D-07  .243836454330D+01 -.281259417534D-06
     .967463165010D+00  .263750000000D+03 -.119569331445D+01 -.835749098019D-08
    -.460733477113D-10  .100000000000D+01  .231200000000D+04  .000000000000D+00
     .240000000000D+01  .000000000000D+00 -.176951289177D-07  .700000000000D+01
     .295200000000D+06  .400000000000D+01
1  24  5  1 12  0  0.0  .279662199318D-03 -.443378667114D-11  .000000000000D+00
     .460000000000D+02  .206562500000D+02  .625061750617D-08  .193742439284D+01
     .867992639542D-06  .134288759436D-01  .715069472790D-05  .515374891472D+04
     .302400000000D+06 -.193715095520D-06  .443875339841D+00 -.260770320892D-06
     .954964481555D+00  .239593750000D+03  .103125936496D+01 -.807497921244D-08
    -.209651589973D-09  .100000000000D+01  .231200000000D+04  .000000000000D+00
     .240000000000D+01  .630000000000D+02 -.195577740669D-07  .460000000000D+02
     .295200000000D+06  .400000000000D+01
5  24  5  1 12  0  0.0 -.171124003828D-03 -.136424205266D-11  .000000000000D+00
     .430000000000D+02 -.329687500000D+02  .432875173846D-08  .843931503855D+00
    -.171177089214D-05  .579620746430D-02  .384077429771D-05  .515360491562D+04
     .302400000000D+06 -.372529029846D-07 -.276203874518D+01 -.689178705215D-07
     .971193511022D+00  .314281250000D+03  .124194750280D+01 -.823534303509D-08
     .517878714584D-10  .100000000000D+01  .231200000000D+04  .000000000000D+00
     .240000000000D+01  .000000000000D+00 -.107102096081D-07  .430000000000D+02
     .295200000000D+06  .400000000000D+01
6  24  5  1 12  0  0.0  .295249745250D-03 -.188720150618D-10  .000000000000D+00
     .630000000000D+02  .618750000000D+02  .376801409577D-08 -.151136922678D+01
     .322051346302D-05  .303106487263D-02  .634789466858D-05  .515361274338D+04
     .302400000000D+06 -.167638063431D-07  .253607741929D+01 -.167638063431D-07
     .989827070179D+00  .274343750000D+03 -.693160425097D+00 -.789497171440D-08
     .113933317209D-09  .100000000000D+01  .231200000000D+04  .000000000000D+00
     .240000000000D+01  .000000000000D+00  .419095158577D-08  .630000000000D+02
     .295200000000D+06  .400000000000D+01
29 24  5  1 12  0  0.0 -.600029248744D-03  .136424205266D-11  .000000000000D+00
     .260000000000D+02  .416562500000D+02  .412874340731D-08  .504593285124D+00
     .194460153580D-05  .285261671524D-02  .811181962490D-05  .515360703087D+04
     .302400000000D+06  .316649675369D-07  .155040363205D+01  .372529029846D-08
     .971510447835D+00  .228437500000D+03  .251697587849D+01 -.789711466081D-08
    -.402159608705D-09  .100000000000D+01  .231200000000D+04  .000000000000D+00
     .240000000000D+01  .000000000000D+00 -.977888703346D-08  .260000000000D+02
     .295200000000D+06  .400000000000D+01
30 24  5  1 12  0  0.0 -.397077761590D-03  .568434188608D-11  .000000000000D+00
     .450000000000D+02 -.528125000000D+01  .524700427307D-08 -.252421199357D+01
    -.515952706337D-06  .709481257945D-02  .926479697227D-05  .515364966011D+04
     .302400000000D+06  .132247805595D-06 -.618000738326D+00 -.171363353729D-06
     .935505059792D+00  .189000000000D+03 -.247925895237D+01 -.817534053575D-08
     .371444043564D-09  .100000000000D+01  .231200000000D+04  .000000000000D+00
     .240000000000D+01  .000000000000D+00  .372529029846D-08  .450000000000D+02
     .295200000000D+06  .400000000000D+01
15 24  5  1 12  0  0.0  .154308043420D-03  .409272615798D-11  .000000000000D+00
     .390000000000D+02 -.753125000000D+02  .510092675979D-08 -.476159788435D+00
    -.387243926525D-05  .155372837326D-01  .759959220886D-05  .515364737129D+04
     .302400000000D+06 -.143423676491D-06 -.181885981986D+01  .162050127983D-06
     .934841203660D+00  .223343750000D+03  .130554146017D+01 -.862893085818D-08
     .175364447490D-09  .100000000000D+01  .231200000000D+04  .000000000000D+00
     .240000000000D+01  .000000000000D+00 -.107102096081D-07  .390000000000D+02
     .295200000000D+06  .400000000000D+01
8  24  5  1 12  0  0.0  .154057983309D-03  .214868123294D-10  .000000000000D+00
     .330000000000D+02  .510625000000D+02  .467233747875D-08  .469077861993D+00
     .277534127235D-05  .946067401674D-02  .823847949505D-05  .515362533379D+04
     .302400000000D+06  .782310962677D-07  .144108927150D+01  .987201929092D-07
     .953367460701D+00  .212156250000D+03  .357507819270D+00 -.819212694926D-08
    -.509306928964D-09  .100000000000D+01  .231200000000D+04  .000000000000D+00
     .240000000000D+01  .000000000000D+00  .465661287308D-08  .330000000000D+02
     .295200000000D+06  .400000000000D+01
20 24  5  1 12  0  0.0  .378175172955D-03 -.136424205266D-11  .000000000000D+00
     .290000000000D+02 -.139687500000D+02  .474055460598D-08 -.105840070707D+01
    -.715255737305D-06  .363894319162D-02  .323727726936D-05  .515377808952D+04
     .302400000000D+06  .175088644028D-06 -.289036109585D+01  .167638063431D-07
     .953689738628D+00  .312906250000D+03 -.259534265620D+01 -.839713548868D-08
     .115719105880D-09  .100000000000D+01  .231200000000D+04  .000000000000D+00
     .240000000000D+01  .000000000000D+00 -.838190317154D-08  .290000000000D+02
     .295200000000D+06  .400000000000D+01
25 24  5  1 12  0  0.0  .494897365570D-03  .795807864051D-12  .000000000000D+00
     .300000000000D+02  .262812500000D+02  .502949521295D-08  .313720636729D+01
     .129640102386D-05  .117638191441D-01  .661052763462D-05  .515357480240D+04
     .302400000000D+06  .104308128357D-06  .409947804566D+00 -.277534127235D-06
     .950867652620D+00  .242187500000D+03  .108913208526D+01 -.809605151876D-08
    -.195722438339D-09  .100000000000D+01  .231200000000D+04  .000000000000D+00
     .240000000000D+01  .000000000000D+00  .558793544769D-08  .300000000000D+02
     .295200000000D+06  .400000000000D+01
14 24  5  1 12  0  0.0  .389951281250D-03  .943600753089D-11  .000000000000D+00
     .240000000000D+02  .285000000000D+02  .515771483953D-08 -.310176039913D+01
     .147148966789D-05  .436286802869D-02  .696629285812D-05  .515369237137D+04
     .302400000000D+06 -.596046447754D-07  .452173306696D+00 -.279396772385D-07
     .946258607789D+00  .238875000000D+03 -.292831709936D+01 -.818426947910D-08
    -.189650756858D-09  .100000000000D+01  .231200000000D+04  .000000000000D+00
     .240000000000D+01  .000000000000D+00 -.791624188423D-08  .240000000000D+02
     .295200000000D+06  .400000000000D+01
22 24  5  1 12  0  0.0 -.743102282286D-05 -.545696821064D-11  .000000000000D+00
     .970000000000D+02  .245000000000D+02  .492127641949D-08  .100489364007D+01
     .101886689663D-05  .143278029282D-01  .691600143909D-05  .515370056534D+04
     .302400000000D+06  .372529029846D-08  .517383630556D+00 -.350177288055D-06
     .961711042805D+00  .248937500000D+03 -.113582814362D+01 -.824784355579D-08
    -.193222334200D-09  .100000000000D+01  .231200000000D+04  .000000000000D+00
     .240000000000D+01  .000000000000D+00 -.111758708954D-07  .970000000000D+02
     .295200000000D+06  .400000000000D+01
